[{"OBJECT_NAME":"STARLINK-1553","OBJECT_ID":"2020-062Z","EPOCH":"2026-03-09T21:21:38.690496","MEAN_MOTION":15.36665572,"ECCENTRICITY":0.00049977,"INCLINATION":53.0381,"RA_OF_ASC_NODE":305.9588,"ARG_OF_PERICENTER":144.0342,"MEAN_ANOMALY":216.0997,"EPHEMERIS_TYPE":0,"CLASSIFICATION_TYPE":"U","NORAD_CAT_ID":46348,"ELEMENT_SET_NO":999,"REV_AT_EPOCH":30532,"BSTAR":0.00060638819,"MEAN_MOTION_DOT":0.00021714,"MEAN_MOTION_DDOT":0},{"OBJECT_NAME":"STARLINK-36317","OBJECT_ID":"2026-026R","EPOCH":"2026-03-09T22:00:01.999584","MEAN_MOTION":15.48735055,"ECCENTRICITY":0.00018531,"INCLINATION":97.285,"RA_OF_ASC_NODE":123.5111,"ARG_OF_PERICENTER":76.5703,"MEAN_ANOMALY":154.3041,"EPHEMERIS_TYPE":0,"CLASSIFICATION_TYPE":"U","NORAD_CAT_ID":67736,"ELEMENT_SET_NO":999,"REV_AT_EPOCH":535,"BSTAR":-0.039742564,"MEAN_MOTION_DOT":-0.01911481,"MEAN_MOTION_DDOT":0}]
